SatCatId,ObjectName,LaunchYear,OrbitalPeriod,LaunchMass,StatusCode,Inclination,Status,UcsData,OrbitClassEstimated,LaunchSiteCountry,Owner,UseType,Purpose,LaunchVehicleClass,TLE1,TLE2,MeanMotion,Eccentricity,OrbitClass
51857,STARLINK-3571,2022,95.44,260.0,+,53.22,Active,1,LEO,USA,USA,Commercial,Communications,Falcon,1 51857U 22022F   23266.75235271  .00001105  00000+0  87516-4 0  9992,2 51857  53.2162  90.1289 0001265  92.4958 267.6179 15.08837241 87469,15.08837241,0.0001265,LEO
51858,STARLINK-3563,2022,95.44,260.0,+,53.22,Active,1,LEO,USA,USA,Commercial,Communications,Falcon,1 51858U 22022G   23266.49012076  .00000511  00000+0  50216-4 0  9997,2 51858  53.2161  91.2967 0001123  93.0372 267.0749 15.08837251 87428,15.08837251,0.0001123,LEO
51859,STARLINK-3560,2022,95.44,260.0,+,53.22,Active,1,LEO,USA,USA,Commercial,Communications,Falcon,1 51859U 22022H   23266.77167025  .00001581  00000+0  11741-3 0  9991,2 51859  53.2171  80.0360 0001408  84.8424 275.2729 15.08846410 87601,15.0884641,0.0001408,LEO
51860,STARLINK-3559,2022,95.44,260.0,+,53.22,Active,1,LEO,USA,USA,Commercial,Communications,Falcon,1 51860U 22022J   23266.51311469  .00000066  00000+0  22237-4 0  9998,2 51860  53.2164  81.1880 0001492  93.9810 266.1353 15.08841380 87521,15.0884138,0.0001492,LEO
51861,STARLINK-3562,2022,95.44,260.0,+,53.22,Active,1,LEO,USA,USA,Commercial,Communications,Falcon,1 51861U 22022K   23266.23343441  .00004030  00000+0  27111-3 0  9993,2 51861  53.2161  82.4472 0001889  83.5606 276.5602 15.08844924 87392,15.08844924,0.0001889,LEO
51862,STARLINK-3508,2022,95.44,260.0,+,53.22,Active,1,LEO,USA,USA,Commercial,Communications,Falcon,1 51862U 22022L   23266.50943617 -.00000690  00000+0 -25269-4 0  9998,2 51862  53.2177  81.2047 0001562  94.8992 265.2179 15.08837718 87573,15.08837718,0.0001562,LEO
51863,STARLINK-3555,2022,95.44,260.0,+,53.22,Active,1,LEO,USA,USA,Commercial,Communications,Falcon,1 51863U 22022M   23266.49103654  .00002337  00000+0  16485-3 0  9993,2 51863  53.2164  81.2920 0001100  82.0192 278.0925 15.08839298 87519,15.08839298,0.00011,LEO
51864,STARLINK-3548,2022,95.44,260.0,+,53.22,Active,1,LEO,USA,USA,Commercial,Communications,Falcon,1 51864U 22022N   23266.49470360  .00004045  00000+0  27198-3 0  9996,2 51864  53.2163  81.1963 0001379  80.2240 279.8908 15.08854386 87567,15.08854386,0.0001379,LEO
51865,STARLINK-3503,2022,95.44,260.0,+,53.22,Active,1,LEO,USA,USA,Commercial,Communications,Falcon,1 51865U 22022P   23266.74863207  .00000391  00000+0  42631-4 0  9991,2 51865  53.2153  80.1342 0001397  89.1426 270.9726 15.08846370 87554,15.0884637,0.0001397,LEO
51866,STARLINK-3553,2022,95.43,260.0,+,53.22,Active,1,LEO,USA,USA,Commercial,Communications,Falcon,1 51866U 22022Q   23266.58334491 -.00090168  00000+0 -57106-2 0  9996,2 51866  53.2156  80.7330 0001402  94.4620 102.2109 15.08893960  5697,15.0889396,0.0001402,LEO
51867,STARLINK-3590,2022,95.44,260.0,+,53.22,Active,1,LEO,USA,USA,Commercial,Communications,Falcon,1 51867U 22022R   23266.21503624  .00001490  00000+0  11170-3 0  9993,2 51867  53.2162  82.5289 0001596  79.1222 280.9950 15.08838078 87473,15.08838078,0.0001596,LEO
51868,STARLINK-3578,2022,95.44,260.0,+,53.21,Active,1,LEO,USA,USA,Commercial,Communications,Falcon,1 51868U 22022S   23266.75231436  .00002112  00000+0  15073-3 0  9990,2 51868  53.2157  80.1175 0001367  88.7962 271.3187 15.08849544 87554,15.08849544,0.0001367,LEO
51869,STARLINK-3588,2022,95.44,260.0,+,53.22,Active,1,LEO,USA,USA,Commercial,Communications,Falcon,1 51869U 22022T   23266.73391780 -.00000814  00000+0 -33049-4 0  9991,2 51869  53.2157  80.2005 0001230  90.2260 269.8873 15.08837211 87558,15.08837211,0.000123,LEO
51870,STARLINK-3591,2022,95.44,260.0,+,53.22,Active,1,LEO,USA,USA,Commercial,Communications,Falcon,1 51870U 22022U   23266.21135310  .00000707  00000+0  62494-4 0  9996,2 51870  53.2158  82.5470 0001179  87.6040 272.5087 15.08848244 87523,15.08848244,0.0001179,LEO
51871,STARLINK-3567,2022,95.44,260.0,+,53.22,Active,1,LEO,USA,USA,Commercial,Communications,Falcon,1 51871U 22022V   23266.73023561  .00000110  00000+0  25016-4 0  9995,2 51871  53.2180  80.2198 0001362  97.5601 262.5546 15.08841246 87599,15.08841246,0.0001362,LEO
51872,STARLINK-3554,2022,95.44,260.0,+,53.22,Active,1,LEO,USA,USA,Commercial,Communications,Falcon,1 51872U 22022W   23266.73758875 -.00002795  00000+0 -15747-3 0  9991,2 51872  53.2177  80.1837 0001839 104.9499 255.1697 15.08864147 87558,15.08864147,0.0001839,LEO
51873,STARLINK-3582,2022,95.44,260.0,+,53.22,Active,1,LEO,USA,USA,Commercial,Communications,Falcon,1 51873U 22022X   23266.52143099  .00000174  00000+0  29027-4 0  9999,2 51873  53.2168  81.1644 0001660  96.3807 263.7374 15.08842294 87528,15.08842294,0.000166,LEO
51874,STARLINK-3574,2022,95.44,260.0,+,53.22,Active,1,LEO,USA,USA,Commercial,Communications,Falcon,1 51874U 22022Y   23266.79280216  .00000999  00000+0  80831-4 0  9997,2 51874  53.2177  79.9357 0001069  82.7334 277.3780 15.08842230 87557,15.0884223,0.0001069,LEO
51875,STARLINK-3585,2022,95.44,260.0,+,53.22,Active,1,LEO,USA,USA,Commercial,Communications,Falcon,1 51875U 22022Z   23266.50574285  .00003364  00000+0  22931-3 0  9994,2 51875  53.2158  81.1362 0002163  78.1744 281.9491 15.08852714 87523,15.08852714,0.0002163,LEO
51876,STARLINK-3583,2022,95.44,260.0,+,53.22,Active,1,LEO,USA,USA,Commercial,Communications,Falcon,1 51876U 22022AA  23266.78911196  .00000123  00000+0  25796-4 0  9994,2 51876  53.2174  79.9525 0001413  98.9662 261.1490 15.08842783 87562,15.08842783,0.0001413,LEO
51877,STARLINK-3556,2022,95.44,260.0,+,53.22,Active,1,LEO,USA,USA,Commercial,Communications,Falcon,1 51877U 22022AB  23266.17547414  .00002125  00000+0  15152-3 0  9994,2 51877  53.2167  72.7083 0000887  83.3686 276.7407 15.08841248 87603,15.08841248,8.87e-05,LEO
51878,STARLINK-3575,2022,95.44,260.0,+,53.22,Active,1,LEO,USA,USA,Commercial,Communications,Falcon,1 51878U 22022AC  23266.51679597  .00002625  00000+0  18296-3 0  9998,2 51878  53.2163  81.1726 0001275  87.0178 273.0960 15.08834633 87522,15.08834633,0.0001275,LEO
51879,STARLINK-3572,2022,95.44,260.0,+,53.22,Active,1,LEO,USA,USA,Commercial,Communications,Falcon,1 51879U 22022AD  23266.43307153 -.00001078  00000+0 -49652-4 0  9990,2 51879  53.2171  71.5499 0001375  86.0875 274.0274 15.08837424 87649,15.08837424,0.0001375,LEO
51880,STARLINK-3566,2022,95.44,260.0,+,53.22,Active,1,LEO,USA,USA,Commercial,Communications,Falcon,1 51880U 22022AE  23266.52043785  .00000175  00000+0  29111-4 0  9993,2 51880  53.2166  80.8767 0001839  93.6577 266.4625 15.08847107 87525,15.08847107,0.0001839,LEO
51881,STARLINK-3504,2022,95.44,260.0,+,53.22,Active,1,LEO,USA,USA,Commercial,Communications,Falcon,1 51881U 22022AF  23266.49195582  .00000492  00000+0  48991-4 0  9992,2 51881  53.2170  71.2841 0001910  86.9343 273.1867 15.08855168 87703,15.08855168,0.000191,LEO
51882,STARLINK-3570,2022,95.44,260.0,+,53.22,Active,1,LEO,USA,USA,Commercial,Communications,Falcon,1 51882U 22022AG  23266.76891432  .00000642  00000+0  58425-4 0  9990,2 51882  53.2178  70.0520 0001314  89.4241 270.6902 15.08841337 87745,15.08841337,0.0001314,LEO
51883,STARLINK-3576,2022,95.44,260.0,+,53.22,Active,1,LEO,USA,USA,Commercial,Communications,Falcon,1 51883U 22022AH  23266.76796879 -.00000682  00000+0 -24759-4 0  9999,2 51883  53.2171  70.2297 0001556  88.3462 271.7708 15.08828798 87688,15.08828798,0.0001556,LEO
51884,STARLINK-3577,2022,95.44,260.0,+,53.22,Active,1,LEO,USA,USA,Commercial,Communications,Falcon,1 51884U 22022AJ  23266.42939329  .00000201  00000+0  30726-4 0  9998,2 51884  53.2165  71.5635 0001909  78.1819 281.9387 15.08843707 87725,15.08843707,0.0001909,LEO
51885,STARLINK-3584,2022,95.44,260.0,+,53.22,Active,1,LEO,USA,USA,Commercial,Communications,Falcon,1 51885U 22022AK  23265.95099081  .00007047  00000+0  46026-3 0  9992,2 51885  53.2173  73.7148 0001517  88.5701 271.5465 15.08853903 87561,15.08853903,0.0001517,LEO
51886,STARLINK-3565,2022,95.44,260.0,+,53.22,Active,1,LEO,USA,USA,Commercial,Communications,Falcon,1 51886U 22022AL  23266.48827665 -.00000769  00000+0 -30257-4 0  9995,2 51886  53.2170  71.3006 0001419  88.7379 271.3776 15.08836150 87658,15.0883615,0.0001419,LEO
51887,STARLINK-3551,2022,95.44,260.0,+,53.22,Active,1,LEO,USA,USA,Commercial,Communications,Falcon,1 51887U 22022AM  23266.74219281  .00002061  00000+0  14751-3 0  9999,2 51887  53.2165  70.1639 0001247  86.3086 273.8049 15.08848882 87688,15.08848882,0.0001247,LEO
51888,STARLINK-3536,2022,95.44,260.0,+,53.22,Active,1,LEO,USA,USA,Commercial,Communications,Falcon,1 51888U 22022AN  23265.75595325  .00003580  00000+0  24284-3 0  9995,2 51888  53.2165  74.5874 0001242  78.8710 281.2422 15.08845934 87541,15.08845934,0.0001242,LEO
51889,STARLINK-3547,2022,95.44,260.0,+,53.22,Active,1,LEO,USA,USA,Commercial,Communications,Falcon,1 51889U 22022AP  23266.73115336  .00002153  00000+0  15328-3 0  9999,2 51889  53.2174  70.2123 0001495  89.3248 270.7916 15.08850509 87685,15.08850509,0.0001495,LEO
51890,STARLINK-3519,2022,95.39,260.0,+,53.22,Active,1,LEO,USA,USA,Commercial,Communications,Falcon,1 51890U 22022AQ  23266.16988432  .00001119  00000+0  86547-4 0  9996,2 51890  53.2183  71.6550 0001287  82.8135 277.3004 15.09660311 87613,15.09660311,0.0001287,LEO
51891,STARLINK-3549,2022,95.44,260.0,+,53.22,Active,1,LEO,USA,USA,Commercial,Communications,Falcon,1 51891U 22022AR  23266.72747318  .00006953  00000+0  45426-3 0  9996,2 51891  53.2170  70.2298 0001523  96.6315 263.4850 15.08861742 87738,15.08861742,0.0001523,LEO
51892,STARLINK-3587,2022,95.44,260.0,+,53.22,Active,1,LEO,USA,USA,Commercial,Communications,Falcon,1 51892U 22022AS  23266.20491314  .00002374  00000+0  16714-3 0  9993,2 51892  53.2159  72.5726 0001545  94.8977 265.2192 15.08846896 87603,15.08846896,0.0001545,LEO
